{
    "links": {
        "self": "http://www.neowsapp.com/rest/v1/neo/3102699?api_key=iIulBulltgU6a56xZRHN4H3l9WmuAYTsLGpBGhQ2"
    },
    "id": "3102699",
    "neo_reference_id": "3102699",
    "name": "(2001 XX103)",
    "designation": "2001 XX103",
    "nasa_jpl_url": "http://ssd.jpl.nasa.gov/sbdb.cgi?sstr=3102699",
    "absolute_magnitude_h": 23.6,
    "estimated_diameter": {
        "kilometers": {
            "estimated_diameter_min": 0.0506471459,
            "estimated_diameter_max": 0.1132504611
        },
        "meters": {
            "estimated_diameter_min": 50.6471458835,
            "estimated_diameter_max": 113.2504610618
        },
        "miles": {
            "estimated_diameter_min": 0.0314706677,
            "estimated_diameter_max": 0.0703705522
        },
        "feet": {
            "estimated_diameter_min": 166.1651821003,
            "estimated_diameter_max": 371.5566426699
        }
    },
    "is_potentially_hazardous_asteroid": false,
    "close_approach_data": [
        {
            "close_approach_date": "1934-05-20",
            "close_approach_date_full": "1934-May-20 23:30",
            "epoch_date_close_approach": -1123979400000,
            "relative_velocity": {
                "kilometers_per_second": "17.6538054743",
                "kilometers_per_hour": "63553.6997074112",
                "miles_per_hour": "39489.7974654189"
            },
            "miss_distance": {
                "astronomical": "0.048715266",
                "lunar": "18.950238474",
                "kilometers": "7287700.03008342",
                "miles": "4528366.815534396"
            },
            "orbiting_body": "Earth"
        },
        {
            "close_approach_date": "2001-12-20",
            "close_approach_date_full": "2001-Dec-20 17:41",
            "epoch_date_close_approach": 1008870060000,
            "relative_velocity": {
                "kilometers_per_second": "18.0718698559",
                "kilometers_per_hour": "65058.7314811748",
                "miles_per_hour": "40424.9656806222"
            },
            "miss_distance": {
                "astronomical": "0.0172940001",
                "lunar": "6.7273660389",
                "kilometers": "2587145.578739787",
                "miles": "1607577.7182595806"
            },
            "orbiting_body": "Earth"
        },
        {
            "close_approach_date": "2004-11-28",
            "close_approach_date_full": "2004-Nov-28 14:41",
            "epoch_date_close_approach": 1101652860000,
            "relative_velocity": {
                "kilometers_per_second": "30.1966661111",
                "kilometers_per_hour": "108707.9980000169",
                "miles_per_hour": "67546.9224239549"
            },
            "miss_distance": {
                "astronomical": "0.3978557032",
                "lunar": "154.7658685448",
                "kilometers": "59518365.766072184",
                "miles": "36982997.5626527792"
            },
            "orbiting_body": "Earth"
        },
        {
            "close_approach_date": "2005-04-07",
            "close_approach_date_full": "2005-Apr-07 20:08",
            "epoch_date_close_approach": 1112904480000,
            "relative_velocity": {
                "kilometers_per_second": "20.616789578",
                "kilometers_per_hour": "74220.4424807507",
                "miles_per_hour": "46117.6966069976"
            },
            "miss_distance": {
                "astronomical": "0.0391869855",
                "lunar": "15.2437373595",
                "kilometers": "5862289.562520885",
                "miles": "3642657.821862813"
            },
            "orbiting_body": "Mars"
        },
        {
            "close_approach_date": "2130-12-15",
            "close_approach_date_full": "2130-Dec-15 23:23",
            "epoch_date_close_approach": 5079280980000,
            "relative_velocity": {
                "kilometers_per_second": "21.8898112077",
                "kilometers_per_hour": "78803.3203476268",
                "miles_per_hour": "48965.3186904462"
            },
            "miss_distance": {
                "astronomical": "0.1371969543",
                "lunar": "53.3696152227",
                "kilometers": "20524372.133767341",
                "miles": "12753253.4677016658"
            },
            "orbiting_body": "Earth"
        }
    ],
    "orbital_data": {
        "orbit_id": "10",
        "orbit_determination_date": "2017-04-06 09:15:43",
        "first_observation_date": "2001-12-15",
        "last_observation_date": "2001-12-20",
        "data_arc_in_days": 5,
        "observations_used": 31,
        "orbit_uncertainty": "8",
        "minimum_orbit_intersection": ".0159678",
        "jupiter_tisserand_invariant": "3.471",
        "epoch_osculation": "2452261.5",
        "eccentricity": ".6648250542430877",
        "semi_major_axis": "2.04946828968793",
        "inclination": "6.201738595513584",
        "ascending_node_longitude": "80.00409955548686",
        "orbital_period": "1071.667922631715",
        "perihelion_distance": ".6869304228266638",
        "perihelion_argument": "84.64597673824176",
        "aphelion_distance": "3.412006156549197",
        "perihelion_time": "2452308.537745911719",
        "mean_anomaly": "344.1988472635863",
        "mean_motion": ".335924956227057",
        "equinox": "J2000",
        "orbit_class": {
            "orbit_class_type": "APO",
            "orbit_class_description": "Near-Earth asteroid orbits which cross the Earth’s orbit similar to that of 1862 Apollo",
            "orbit_class_range": "a (semi-major axis) > 1.0 AU; q (perihelion) < 1.017 AU"
        }
    },
    "is_sentry_object": false
}